{"type": "FeatureCollection", "features": [ {"type": "Feature", "properties": {"norad_id": 42741, "name": "EUTELSAT 172B", "group": "eutelsat", "lat": -0.015337970580954463, "lon": -11.73125776491348, "alt_km": 35786.39644657611, "timestamp": "2025-12-21T05:44:51.247446+00:00", "meta": {"OBJECT_NAME": "EUTELSAT 172B", "OBJECT_ID": "2017-029B", "EPOCH": "2025-12-20T19:11:02.813568", "MEAN_MOTION": 1.00271787, "ECCENTRICITY": 1.887e-05, "INCLINATION": 0.0327, "RA_OF_ASC_NODE": 122.2996, "ARG_OF_PERICENTER": 340.6051, "MEAN_ANOMALY": 86.4889, "EPHEMERIS_TYPE": 0, "CLASSIFICATION_TYPE": "U", "NORAD_CAT_ID": 42741, "ELEMENT_SET_NO": 999, "REV_AT_EPOCH": 3194, "BSTAR": 0, "MEAN_MOTION_DOT": 1.8e-07, "MEAN_MOTION_DDOT": 0}, "tle": {"line1": "1 42741U 17029B   25354.79933812  .00000018  00000+0  00000+0 0  9995", "line2": "2 42741   0.0327 122.2996 0000188 340.6051  86.4889  1.00271787 31942"}}, "geometry": {"type": "Point", "coordinates": [-11.73125776491348, -0.015337970580954463]}}, {"type": "Feature", "properties": {"norad_id": 44334, "name": "EUTELSAT 7C", "group": "eutelsat", "lat": 0.0037580701663125628, "lon": -176.78327075627035, "alt_km": 35781.776763430775, "timestamp": "2025-12-21T05:44:51.247458+00:00", "meta": {"OBJECT_NAME": "EUTELSAT 7C", "OBJECT_ID": "2019-034B", "EPOCH": "2025-12-20T06:24:55.272960", "MEAN_MOTION": 1.00270763, "ECCENTRICITY": 0.00030526, "INCLINATION": 0.0729, "RA_OF_ASC_NODE": 179.1336, "ARG_OF_PERICENTER": 73.4447, "MEAN_ANOMALY": 299.7414, "EPHEMERIS_TYPE": 0, "CLASSIFICATION_TYPE": "U", "NORAD_CAT_ID": 44334, "ELEMENT_SET_NO": 999, "REV_AT_EPOCH": 504, "BSTAR": 0, "MEAN_MOTION_DOT": 7.2e-07, "MEAN_MOTION_DDOT": 0}, "tle": {"line1": "1 44334U 19034B   25354.26730640  .00000072  00000+0  00000+0 0  9999", "line2": "2 44334   0.0729 179.1336 0003052  73.4447 299.7414  1.00270763  5048"}}, "geometry": {"type": "Point", "coordinates": [-176.78327075627035, 0.0037580701663125628]}}, {"type": "Feature", "properties": {"norad_id": 44624, "name": "EUTELSAT 5 WEST B", "group": "eutelsat", "lat": -0.01591949172889821, "lon": 171.23705299613272, "alt_km": 35788.115785988084, "timestamp": "2025-12-21T05:44:51.247470+00:00", "meta": {"OBJECT_NAME": "EUTELSAT 5 WEST B", "OBJECT_ID": "2019-067A", "EPOCH": "2025-12-20T21:45:55.480032", "MEAN_MOTION": 1.00271335, "ECCENTRICITY": 0.00030008, "INCLINATION": 0.0666, "RA_OF_ASC_NODE": 335.803, "ARG_OF_PERICENTER": 294.0896, "MEAN_ANOMALY": 141.3279, "EPHEMERIS_TYPE": 0, "CLASSIFICATION_TYPE": "U", "NORAD_CAT_ID": 44624, "ELEMENT_SET_NO": 999, "REV_AT_EPOCH": 2264, "BSTAR": 0, "MEAN_MOTION_DOT": -1.9e-07, "MEAN_MOTION_DDOT": 0}, "tle": {"line1": "1 44624U 19067A   25354.90689213 -.00000019  00000+0  00000+0 0  9999", "line2": "2 44624   0.0666 335.8030 0003000 294.0896 141.3279  1.00271335 22646"}}, "geometry": {"type": "Point", "coordinates": [171.23705299613272, -0.01591949172889821]}}, {"type": "Feature", "properties": {"norad_id": 45027, "name": "EUTELSAT KONNECT", "group": "eutelsat", "lat": 0.06747064377628376, "lon": -176.55180526916234, "alt_km": 35787.85008547658, "timestamp": "2025-12-21T05:44:51.247482+00:00", "meta": {"OBJECT_NAME": "EUTELSAT KONNECT", "OBJECT_ID": "2020-005B", "EPOCH": "2025-12-20T06:25:02.761248", "MEAN_MOTION": 1.00269751, "ECCENTRICITY": 0.00013058, "INCLINATION": 0.0718, "RA_OF_ASC_NODE": 94.8547, "ARG_OF_PERICENTER": 192.1408, "MEAN_ANOMALY": 265.5721, "EPHEMERIS_TYPE": 0, "CLASSIFICATION_TYPE": "U", "NORAD_CAT_ID": 45027, "ELEMENT_SET_NO": 999, "REV_AT_EPOCH": 2254, "BSTAR": 0, "MEAN_MOTION_DOT": 7.3e-07, "MEAN_MOTION_DDOT": 0}, "tle": {"line1": "1 45027U 20005B   25354.26739307  .00000073  00000+0  00000+0 0  9999", "line2": "2 45027   0.0718  94.8547 0001305 192.1408 265.5721  1.00269751 22549"}}, "geometry": {"type": "Point", "coordinates": [-176.55180526916234, 0.06747064377628376]}}, {"type": "Feature", "properties": {"norad_id": 49056, "name": "EUTELSAT QUANTUM", "group": "eutelsat", "lat": -0.015231150738993015, "lon": -136.0586262887721, "alt_km": 35777.90524261064, "timestamp": "2025-12-21T05:44:51.247494+00:00", "meta": {"OBJECT_NAME": "EUTELSAT QUANTUM", "OBJECT_ID": "2021-069B", "EPOCH": "2025-12-20T23:02:21.700032", "MEAN_MOTION": 1.00272241, "ECCENTRICITY": 0.0003346, "INCLINATION": 0.0201, "RA_OF_ASC_NODE": 37.4513, "ARG_OF_PERICENTER": 242.1544, "MEAN_ANOMALY": 203.477, "EPHEMERIS_TYPE": 0, "CLASSIFICATION_TYPE": "U", "NORAD_CAT_ID": 49056, "ELEMENT_SET_NO": 999, "REV_AT_EPOCH": 1614, "BSTAR": 0, "MEAN_MOTION_DOT": 1.49e-06, "MEAN_MOTION_DDOT": 0}, "tle": {"line1": "1 49056U 21069B   25354.95997338  .00000149  00000+0  00000+0 0  9996", "line2": "2 49056   0.0201  37.4513 0003346 242.1544 203.4770  1.00272241 16144"}}, "geometry": {"type": "Point", "coordinates": [-136.0586262887721, -0.015231150738993015]}}, {"type": "Feature", "properties": {"norad_id": 53765, "name": "EUTELSAT KONNECT VHTS", "group": "eutelsat", "lat": 0.060419123527543264, "lon": 179.02234413397713, "alt_km": 35779.27537097875, "timestamp": "2025-12-21T05:44:51.247512+00:00", "meta": {"OBJECT_NAME": "EUTELSAT KONNECT VHTS", "OBJECT_ID": "2022-110A", "EPOCH": "2025-12-20T03:48:38.814048", "MEAN_MOTION": 1.00276689, "ECCENTRICITY": 0.00023926, "INCLINATION": 0.0642, "RA_OF_ASC_NODE": 98.8087, "ARG_OF_PERICENTER": 137.8855, "MEAN_ANOMALY": 272.2232, "EPHEMERIS_TYPE": 0, "CLASSIFICATION_TYPE": "U", "NORAD_CAT_ID": 53765, "ELEMENT_SET_NO": 999, "REV_AT_EPOCH": 503, "BSTAR": 0, "MEAN_MOTION_DOT": 4.2e-07, "MEAN_MOTION_DDOT": 0}, "tle": {"line1": "1 53765U 22110A   25354.15878257  .00000042  00000+0  00000+0 0  9998", "line2": "2 53765   0.0642  98.8087 0002392 137.8855 272.2232  1.00276689  5030"}}, "geometry": {"type": "Point", "coordinates": [179.02234413397713, 0.060419123527543264]}}, {"type": "Feature", "properties": {"norad_id": 54048, "name": "EUTELSAT HOTBIRD 13F", "group": "eutelsat", "lat": -0.04704081867273537, "lon": -170.73936604192048, "alt_km": 35795.83323825784, "timestamp": "2025-12-21T05:44:51.247524+00:00", "meta": {"OBJECT_NAME": "EUTELSAT HOTBIRD 13F", "OBJECT_ID": "2022-134A", "EPOCH": "2025-12-20T04:43:57.443232", "MEAN_MOTION": 1.00272198, "ECCENTRICITY": 0.0002383, "INCLINATION": 0.0482, "RA_OF_ASC_NODE": 295.6006, "ARG_OF_PERICENTER": 68.8406, "MEAN_ANOMALY": 168.5765, "EPHEMERIS_TYPE": 0, "CLASSIFICATION_TYPE": "U", "NORAD_CAT_ID": 54048, "ELEMENT_SET_NO": 999, "REV_AT_EPOCH": 1158, "BSTAR": 0, "MEAN_MOTION_DOT": 1.11e-06, "MEAN_MOTION_DDOT": 0}, "tle": {"line1": "1 54048U 22134A   25354.19719263  .00000111  00000+0  00000+0 0  9991", "line2": "2 54048   0.0482 295.6006 0002383  68.8406 168.5765  1.00272198 11586"}}, "geometry": {"type": "Point", "coordinates": [-170.73936604192048, -0.04704081867273537]}}, {"type": "Feature", "properties": {"norad_id": 54225, "name": "EUTELSAT HOTBIRD 13G", "group": "eutelsat", "lat": -0.02964231649718762, "lon": -170.7324416871004, "alt_km": 35778.52804694589, "timestamp": "2025-12-21T05:44:51.247536+00:00", "meta": {"OBJECT_NAME": "EUTELSAT HOTBIRD 13G", "OBJECT_ID": "2022-146A", "EPOCH": "2025-12-19T18:27:37.056960", "MEAN_MOTION": 1.0027241, "ECCENTRICITY": 0.00017892, "INCLINATION": 0.0515, "RA_OF_ASC_NODE": 225.8744, "ARG_OF_PERICENTER": 308.1908, "MEAN_ANOMALY": 204.4423, "EPHEMERIS_TYPE": 0, "CLASSIFICATION_TYPE": "U", "NORAD_CAT_ID": 54225, "ELEMENT_SET_NO": 999, "REV_AT_EPOCH": 566, "BSTAR": 0, "MEAN_MOTION_DOT": 1.12e-06, "MEAN_MOTION_DDOT": 0}, "tle": {"line1": "1 54225U 22146A   25353.76917890  .00000112  00000+0  00000+0 0  9990", "line2": "2 54225   0.0515 225.8744 0001789 308.1908 204.4423  1.00272410  5660"}}, "geometry": {"type": "Point", "coordinates": [-170.7324416871004, -0.02964231649718762]}}, {"type": "Feature", "properties": {"norad_id": 54259, "name": "EUTELSAT 10B", "group": "eutelsat", "lat": 0.053589184654195834, "lon": -173.717942952487, "alt_km": 35785.42974111945, "timestamp": "2025-12-21T05:44:51.247548+00:00", "meta": {"OBJECT_NAME": "EUTELSAT 10B", "OBJECT_ID": "2022-157A", "EPOCH": "2025-12-20T21:50:17.562336", "MEAN_MOTION": 1.00272741, "ECCENTRICITY": 7.541e-05, "INCLINATION": 0.0618, "RA_OF_ASC_NODE": 96.6083, "ARG_OF_PERICENTER": 6.1129, "MEAN_ANOMALY": 324.5944, "EPHEMERIS_TYPE": 0, "CLASSIFICATION_TYPE": "U", "NORAD_CAT_ID": 54259, "ELEMENT_SET_NO": 999, "REV_AT_EPOCH": 1123, "BSTAR": 0, "MEAN_MOTION_DOT": 9.2e-07, "MEAN_MOTION_DDOT": 0}, "tle": {"line1": "1 54259U 22157A   25354.90992549  .00000092  00000+0  00000+0 0  9997", "line2": "2 54259   0.0618  96.6083 0000754   6.1129 324.5944  1.00272741 11231"}}, "geometry": {"type": "Point", "coordinates": [-173.717942952487, 0.053589184654195834]}}, {"type": "Feature", "properties": {"norad_id": 59346, "name": "EUTELSAT 36D", "group": "eutelsat", "lat": -0.013504121053099526, "lon": -147.88384153298904, "alt_km": 35786.51112644823, "timestamp": "2025-12-21T05:44:51.247559+00:00", "meta": {"OBJECT_NAME": "EUTELSAT 36D", "OBJECT_ID": "2024-059A", "EPOCH": "2025-12-20T21:57:39.356640", "MEAN_MOTION": 1.0027453, "ECCENTRICITY": 3.793e-05, "INCLINATION": 0.0243, "RA_OF_ASC_NODE": 25.2957, "ARG_OF_PERICENTER": 328.0325, "MEAN_ANOMALY": 101.6767, "EPHEMERIS_TYPE": 0, "CLASSIFICATION_TYPE": "U", "NORAD_CAT_ID": 59346, "ELEMENT_SET_NO": 999, "REV_AT_EPOCH": 636, "BSTAR": 0, "MEAN_MOTION_DOT": 0, "MEAN_MOTION_DDOT": 0}, "tle": {"line1": "1 59346U 24059A   25354.91503885  .00000000  00000+0  00000+0 0  9993", "line2": "2 59346   0.0243  25.2957 0000379 328.0325 101.6767  1.00274530  6365"}}, "geometry": {"type": "Point", "coordinates": [-147.88384153298904, -0.013504121053099526]}}]}